ONEWEB-0311             
1 49097U 21075Y   24218.17636192  .00000128  00000+0  29687-3 0  9991
2 49097  87.9191 141.4760 0002481  83.9928 276.1486 13.17649903144942
ONEWEB-0312             
1 49098U 21075Z   24218.19090743  .00000095  00000+0  21104-3 0  9999
2 49098  87.9192 141.5048 0002201  91.4724 268.6660 13.17650804144900
ONEWEB-0313             
1 49099U 21075AA  24218.16828283  .00000022  00000+0  22653-4 0  9996
2 49099  87.9192 141.5120 0002152  85.3611 274.7766 13.17650616144911
ONEWEB-0314             
1 49100U 21075AB  24218.23775328  .00000130  00000+0  30162-3 0  9991
2 49100  87.9187 141.4542 0002240  89.2010 270.9378 13.17650327144881
ONEWEB-0315             
1 49101U 21075AC  24218.18278090  .00000275  00000+0  72975-3 0  9998
2 49101  87.8940 126.2873 0001983  73.6688 286.4658 13.12447009146844
ONEWEB-0316             
1 49102U 21075AD  24218.77492361  .00000027  00000+0  34782-4 0  9993
2 49102  87.9129 110.9217 0002091  79.5339 280.6029 13.18686626148549
ONEWEB-0317             
1 49103U 21075AE  24218.48122950 -.00000612  00000+0 -17354-2 0  9992
2 49103  87.8942 126.2383 0001507  69.6874 290.4416 13.12443582146892
ONEWEB-0318             
1 49104U 21075AF  24218.46825330  .00000004  00000+0 -23448-4 0  9990
2 49104  87.9128 110.9750 0002192  80.3095 279.8285 13.18686693148451
